start=new Date('2023-01-28T00:00:00.000Z').valueOf();
sats=[{"CLASSIFICATION_TYPE":"U","MEAN_MOTION_DOT":"0.00003435","RCS_SIZE":"LARGE","GP_ID":"223836851","EPOCH":"2023-01-27T16:38:46.797216","MEAN_MOTION_DDOT":"0.0000000000000","ECCENTRICITY":"0.00011750","ARG_OF_PERICENTER":"71.9457","ELEMENT_SET_NO":"999","PERIOD":"95.593","TLE_LINE1":"1 48594U 21041AT  23027.69359719  .00003435  00000-0  24947-3 0  9995","CENTER_NAME":"EARTH","TIME_SYSTEM":"UTC","MEAN_ELEMENT_THEORY":"SGP4","OBJECT_ID":"2021-041AT","NORAD_CAT_ID":"48594","OBJECT_TYPE":"PAYLOAD","MEAN_ANOMALY":"288.1660","FILE":"3763218","DECAY_DATE":null,"RA_OF_ASC_NODE":"175.8839","SITE":"AFETR","TLE_LINE2":"2 48594  53.0538 175.8839 0001175  71.9457 288.1660 15.06385426 94110","APOAPSIS":"548.072","REV_AT_EPOCH":"9411","INCLINATION":"53.0538","MEAN_MOTION":"15.06385426","LAUNCH_DATE":"2021-05-15","COUNTRY_CODE":"US","EPHEMERIS_TYPE":"0","REF_FRAME":"TEME","BSTAR":"0.00024947000000","SEMIMAJOR_AXIS":"6925.393","OBJECT_NAME":"STARLINK-2251","PERIAPSIS":"546.444"},{"APOAPSIS":"548.020","REV_AT_EPOCH":"9497","LAUNCH_DATE":"2021-05-15","INCLINATION":"53.0519","MEAN_MOTION":"15.06392096","DECAY_DATE":null,"FILE":"3763218","RA_OF_ASC_NODE":"205.4133","SITE":"AFETR","TLE_LINE2":"2 48595  53.0519 205.4133 0001130 103.9058 256.2057 15.06392096 94972","PERIAPSIS":"546.455","SEMIMAJOR_AXIS":"6925.373","OBJECT_NAME":"STARLINK-2252","COUNTRY_CODE":"US","REF_FRAME":"TEME","BSTAR":"0.00003043400000","EPHEMERIS_TYPE":"0","RCS_SIZE":"LARGE","MEAN_MOTION_DOT":"0.00000172","GP_ID":"223837602","CLASSIFICATION_TYPE":"U","OBJECT_ID":"2021-041AU","TIME_SYSTEM":"UTC","MEAN_ELEMENT_THEORY":"SGP4","OBJECT_TYPE":"PAYLOAD","MEAN_ANOMALY":"256.2057","NORAD_CAT_ID":"48595","MEAN_MOTION_DDOT":"0.0000000000000","ECCENTRICITY":"0.00011300","ARG_OF_PERICENTER":"103.9058","EPOCH":"2023-01-27T18:42:10.347552","CENTER_NAME":"EARTH","ELEMENT_SET_NO":"999","PERIOD":"95.593","TLE_LINE1":"1 48595U 21041AU  23027.77928643  .00000172  00000-0  30434-4 0  9997"},{"EPOCH":"2023-01-27T19:14:01.108608","MEAN_MOTION_DDOT":"0.0000000000000","ECCENTRICITY":"0.00012360","ARG_OF_PERICENTER":"97.5657","PERIOD":"95.593","ELEMENT_SET_NO":"999","TLE_LINE1":"1 48596U 21041AV  23027.80140172  .00001742  00000-0  13580-3 0  9991","CENTER_NAME":"EARTH","TIME_SYSTEM":"UTC","MEAN_ELEMENT_THEORY":"SGP4","OBJECT_ID":"2021-041AV","NORAD_CAT_ID":"48596","OBJECT_TYPE":"PAYLOAD","MEAN_ANOMALY":"262.5472","CLASSIFICATION_TYPE":"U","MEAN_MOTION_DOT":"0.00001742","RCS_SIZE":"LARGE","GP_ID":"223813817","COUNTRY_CODE":"US","EPHEMERIS_TYPE":"0","REF_FRAME":"TEME","BSTAR":"0.00013580000000","SEMIMAJOR_AXIS":"6925.372","OBJECT_NAME":"STARLINK-2253","PERIAPSIS":"546.381","FILE":"3763137","DECAY_DATE":null,"RA_OF_ASC_NODE":"205.3161","SITE":"AFETR","TLE_LINE2":"2 48596  53.0531 205.3161 0001236  97.5657 262.5472 15.06392429 94169","APOAPSIS":"548.093","REV_AT_EPOCH":"9416","INCLINATION":"53.0531","MEAN_MOTION":"15.06392429","LAUNCH_DATE":"2021-05-15"},{"MEAN_MOTION_DOT":"0.00001503","RCS_SIZE":"LARGE","GP_ID":"223836600","CLASSIFICATION_TYPE":"U","TIME_SYSTEM":"UTC","MEAN_ELEMENT_THEORY":"SGP4","OBJECT_ID":"2021-041AW","NORAD_CAT_ID":"48597","OBJECT_TYPE":"PAYLOAD","MEAN_ANOMALY":"270.1101","EPOCH":"2023-01-27T19:24:37.716768","MEAN_MOTION_DDOT":"0.0000000000000","ARG_OF_PERICENTER":"90.0009","ECCENTRICITY":"0.00010550","ELEMENT_SET_NO":"999","PERIOD":"95.592","TLE_LINE1":"1 48597U 21041AW  23027.80876987  .00001503  00000-0  11980-3 0  9999","CENTER_NAME":"EARTH","REV_AT_EPOCH":"9497","APOAPSIS":"547.949","MEAN_MOTION":"15.06398546","INCLINATION":"53.0543","LAUNCH_DATE":"2021-05-15","FILE":"3763218","DECAY_DATE":null,"RA_OF_ASC_NODE":"205.2699","TLE_LINE2":"2 48597  53.0543 205.2699 0001055  90.0009 270.1101 15.06398546 94975","SITE":"AFETR","SEMIMAJOR_AXIS":"6925.353","OBJECT_NAME":"STARLINK-2255","PERIAPSIS":"546.487","COUNTRY_CODE":"US","EPHEMERIS_TYPE":"0","REF_FRAME":"TEME","BSTAR":"0.00011980000000"},{"CLASSIFICATION_TYPE":"U","MEAN_MOTION_DOT":"0.00000519","RCS_SIZE":"LARGE","GP_ID":"223837352","EPOCH":"2023-01-27T19:29:56.360832","ECCENTRICITY":"0.00012160","ARG_OF_PERICENTER":"87.2448","MEAN_MOTION_DDOT":"0.0000000000000","TLE_LINE1":"1 48598U 21041AX  23027.81245788  .00000519  00000-0  53762-4 0  9991","PERIOD":"95.592","ELEMENT_SET_NO":"999","CENTER_NAME":"EARTH","MEAN_ELEMENT_THEORY":"SGP4","TIME_SYSTEM":"UTC","OBJECT_ID":"2021-041AX","NORAD_CAT_ID":"48598","MEAN_ANOMALY":"272.8680","OBJECT_TYPE":"PAYLOAD","FILE":"3763218","DECAY_DATE":null,"TLE_LINE2":"2 48598  53.0529 205.2685 0001216  87.2448 272.8680 15.06396198 94162","SITE":"AFETR","RA_OF_ASC_NODE":"205.2685","APOAPSIS":"548.067","REV_AT_EPOCH":"9416","INCLINATION":"53.0529","MEAN_MOTION":"15.06396198","LAUNCH_DATE":"2021-05-15","COUNTRY_CODE":"US","EPHEMERIS_TYPE":"0","BSTAR":"0.00005376200000","REF_FRAME":"TEME","OBJECT_NAME":"STARLINK-2256","SEMIMAJOR_AXIS":"6925.360","PERIAPSIS":"546.383"},{"SEMIMAJOR_AXIS":"6925.363","OBJECT_NAME":"STARLINK-2274","PERIAPSIS":"546.333","EPHEMERIS_TYPE":"0","REF_FRAME":"TEME","BSTAR":"0.00008244100000","COUNTRY_CODE":"US","MEAN_MOTION":"15.06395351","INCLINATION":"53.0534","LAUNCH_DATE":"2021-05-15","APOAPSIS":"548.123","REV_AT_EPOCH":"9530","RA_OF_ASC_NODE":"181.0460","TLE_LINE2":"2 48599  53.0534 181.0460 0001292  75.5344 284.5789 15.06395351 95307","SITE":"AFETR","FILE":"3763218","DECAY_DATE":null,"NORAD_CAT_ID":"48599","OBJECT_TYPE":"PAYLOAD","MEAN_ANOMALY":"284.5789","MEAN_ELEMENT_THEORY":"SGP4","TIME_SYSTEM":"UTC","OBJECT_ID":"2021-041AY","ELEMENT_SET_NO":"999","PERIOD":"95.592","TLE_LINE1":"1 48599U 21041AY  23027.63967856  .00000947  00000-0  82441-4 0  9990","CENTER_NAME":"EARTH","EPOCH":"2023-01-27T15:21:08.227584","MEAN_MOTION_DDOT":"0.0000000000000","ARG_OF_PERICENTER":"75.5344","ECCENTRICITY":"0.00012920","GP_ID":"223837102","MEAN_MOTION_DOT":"0.00000947","RCS_SIZE":"LARGE","CLASSIFICATION_TYPE":"U"},{"OBJECT_TYPE":"PAYLOAD","MEAN_ANOMALY":"276.7977","NORAD_CAT_ID":"48600","OBJECT_ID":"2021-041AZ","TIME_SYSTEM":"UTC","MEAN_ELEMENT_THEORY":"SGP4","CENTER_NAME":"EARTH","PERIOD":"95.593","ELEMENT_SET_NO":"999","TLE_LINE1":"1 48600U 21041AZ  23027.67700018  .00000040  00000-0  21574-4 0  9996","MEAN_MOTION_DDOT":"0.0000000000000","ARG_OF_PERICENTER":"83.3154","ECCENTRICITY":"0.00012440","EPOCH":"2023-01-27T16:14:52.815552","GP_ID":"223835850","RCS_SIZE":"LARGE","MEAN_MOTION_DOT":"0.00000040","CLASSIFICATION_TYPE":"U","PERIAPSIS":"546.373","SEMIMAJOR_AXIS":"6925.369","OBJECT_NAME":"STARLINK-2275","REF_FRAME":"TEME","BSTAR":"0.00002157400000","EPHEMERIS_TYPE":"0","COUNTRY_CODE":"US","LAUNCH_DATE":"2021-05-15","MEAN_MOTION":"15.06393222","INCLINATION":"53.0530","REV_AT_EPOCH":"9509","APOAPSIS":"548.096","RA_OF_ASC_NODE":"195.8757","TLE_LINE2":"2 48600  53.0530 195.8757 0001244  83.3154 276.7977 15.06393222 95094","SITE":"AFETR","DECAY_DATE":null,"FILE":"3763218"},{"REV_AT_EPOCH":"9530","APOAPSIS":"548.220","INCLINATION":"53.0550","MEAN_MOTION":"15.06400773","LAUNCH_DATE":"2021-05-15","FILE":"3763218","DECAY_DATE":null,"SITE":"AFETR","TLE_LINE2":"2 48602  53.0550 180.5938 0001456  92.9426 267.1729 15.06400773 95306","RA_OF_ASC_NODE":"180.5938","OBJECT_NAME":"STARLINK-2713","SEMIMAJOR_AXIS":"6925.346","PERIAPSIS":"546.203","COUNTRY_CODE":"US","EPHEMERIS_TYPE":"0","BSTAR":"0.00016103000000","REF_FRAME":"TEME","MEAN_MOTION_DOT":"0.00002118","RCS_SIZE":"LARGE","GP_ID":"223836100","CLASSIFICATION_TYPE":"U","MEAN_ELEMENT_THEORY":"SGP4","TIME_SYSTEM":"UTC","OBJECT_ID":"2021-041BB","NORAD_CAT_ID":"48602","MEAN_ANOMALY":"267.1729","OBJECT_TYPE":"PAYLOAD","EPOCH":"2023-01-27T17:44:26.783232","ARG_OF_PERICENTER":"92.9426","ECCENTRICITY":"0.00014560","MEAN_MOTION_DDOT":"0.0000000000000","TLE_LINE1":"1 48602U 21041BB  23027.73919888  .00002118  00000-0  16103-3 0  9991","ELEMENT_SET_NO":"999","PERIOD":"95.592","CENTER_NAME":"EARTH"},{"INCLINATION":"53.0556","MEAN_MOTION":"15.06383834","LAUNCH_DATE":"2021-05-15","APOAPSIS":"548.073","REV_AT_EPOCH":"9539","RA_OF_ASC_NODE":"175.3814","SITE":"AFETR","TLE_LINE2":"2 48603  53.0556 175.3814 0001169  98.9534 261.1587 15.06383834 95398","FILE":"3763218","DECAY_DATE":null,"SEMIMAJOR_AXIS":"6925.398","OBJECT_NAME":"STARLINK-2714","PERIAPSIS":"546.454","EPHEMERIS_TYPE":"0","REF_FRAME":"TEME","BSTAR":"-0.00001844100000","COUNTRY_CODE":"US","GP_ID":"223836852","MEAN_MOTION_DOT":"-0.00000556","RCS_SIZE":"LARGE","CLASSIFICATION_TYPE":"U","NORAD_CAT_ID":"48603","OBJECT_TYPE":"PAYLOAD","MEAN_ANOMALY":"261.1587","TIME_SYSTEM":"UTC","MEAN_ELEMENT_THEORY":"SGP4","OBJECT_ID":"2021-041BC","PERIOD":"95.593","ELEMENT_SET_NO":"999","TLE_LINE1":"1 48603U 21041BC  23027.78479536 -.00000556  00000-0 -18441-4 0  9992","CENTER_NAME":"EARTH","EPOCH":"2023-01-27T18:50:06.319104","MEAN_MOTION_DDOT":"0.0000000000000","ECCENTRICITY":"0.00011690","ARG_OF_PERICENTER":"98.9534"},{"PERIAPSIS":"546.393","OBJECT_NAME":"STARLINK-2757","SEMIMAJOR_AXIS":"6925.359","BSTAR":"0.00008685800000","REF_FRAME":"TEME","EPHEMERIS_TYPE":"0","COUNTRY_CODE":"US","LAUNCH_DATE":"2021-05-15","MEAN_MOTION":"15.06396729","INCLINATION":"53.0524","REV_AT_EPOCH":"9496","APOAPSIS":"548.055","TLE_LINE2":"2 48604  53.0524 205.6757 0001200  90.7891 269.3235 15.06396729 94968","SITE":"AFETR","RA_OF_ASC_NODE":"205.6757","DECAY_DATE":null,"FILE":"3763218","MEAN_ANOMALY":"269.3235","OBJECT_TYPE":"PAYLOAD","NORAD_CAT_ID":"48604","OBJECT_ID":"2021-041BD","MEAN_ELEMENT_THEORY":"SGP4","TIME_SYSTEM":"UTC","CENTER_NAME":"EARTH","TLE_LINE1":"1 48604U 21041BD  23027.72030837  .00001012  00000-0  86858-4 0  9997","PERIOD":"95.592","ELEMENT_SET_NO":"999","ARG_OF_PERICENTER":"90.7891","ECCENTRICITY":"0.00012000","MEAN_MOTION_DDOT":"0.0000000000000","EPOCH":"2023-01-27T17:17:14.643168","GP_ID":"223837603","RCS_SIZE":"LARGE","MEAN_MOTION_DOT":"0.00001012","CLASSIFICATION_TYPE":"U"}];
